[
  {"area_code":201,"state":"NJ","utc":-5},
  {"area_code":202,"state":"DC","utc":-5},
  {"area_code":203,"state":"CT","utc":-5},
  {"area_code":205,"state":"AL","utc":-6},
  {"area_code":206,"state":"WA","utc":-8},
  {"area_code":207,"state":"ME","utc":-5},
  {"area_code":208,"state":"ID","utc":-7},
  {"area_code":209,"state":"CA","utc":-8},
  {"area_code":210,"state":"TX","utc":-6},
  {"area_code":212,"state":"NY","utc":-5},
  {"area_code":213,"state":"CA","utc":-8},
  {"area_code":214,"state":"TX","utc":-6},
  {"area_code":215,"state":"PA","utc":-5},
  {"area_code":216,"state":"OH","utc":-5},
  {"area_code":217,"state":"IL","utc":-6},
  {"area_code":218,"state":"MN","utc":-6},
  {"area_code":219,"state":"IN","utc":-6},
  {"area_code":220,"state":"OH","utc":-5},
  {"area_code":223,"state":"PA","utc":-5},
  {"area_code":224,"state":"IL","utc":-6},
  {"area_code":225,"state":"LA","utc":-6},
  {"area_code":228,"state":"MS","utc":-6},
  {"area_code":229,"state":"GA","utc":-5},
  {"area_code":231,"state":"MI","utc":-5},
  {"area_code":234,"state":"OH","utc":-5},
  {"area_code":239,"state":"FL","utc":-5},
  {"area_code":240,"state":"MD","utc":-5},
  {"area_code":248,"state":"MI","utc":-5},
  {"area_code":251,"state":"AL","utc":-6},
  {"area_code":252,"state":"NC","utc":-5},
  {"area_code":253,"state":"WA","utc":-8},
  {"area_code":254,"state":"TX","utc":-6},
  {"area_code":256,"state":"AL","utc":-6},
  {"area_code":260,"state":"IN","utc":-5},
  {"area_code":262,"state":"WI","utc":-6},
  {"area_code":267,"state":"PA","utc":-5},
  {"area_code":269,"state":"MI","utc":-5},
  {"area_code":270,"state":"KY","utc":-6},
  {"area_code":272,"state":"PA","utc":-5},
  {"area_code":276,"state":"VA","utc":-5},
  {"area_code":278,"state":"MI","utc":-5},
  {"area_code":281,"state":"TX","utc":-6},
  {"area_code":283,"state":"OH","utc":-5},
  {"area_code":301,"state":"MD","utc":-5},
  {"area_code":302,"state":"DE","utc":-5},
  {"area_code":303,"state":"CO","utc":-7},
  {"area_code":304,"state":"WV","utc":-5},
  {"area_code":305,"state":"FL","utc":-5},
  {"area_code":307,"state":"WY","utc":-7},
  {"area_code":308,"state":"NE","utc":-6},
  {"area_code":309,"state":"IL","utc":-6},
  {"area_code":310,"state":"CA","utc":-8},
  {"area_code":312,"state":"IL","utc":-6},
  {"area_code":313,"state":"MI","utc":-5},
  {"area_code":314,"state":"MO","utc":-6},
  {"area_code":315,"state":"NY","utc":-5},
  {"area_code":316,"state":"KS","utc":-6},
  {"area_code":317,"state":"IN","utc":-5},
  {"area_code":318,"state":"LA","utc":-6},
  {"area_code":319,"state":"IA","utc":-6},
  {"area_code":320,"state":"MN","utc":-6},
  {"area_code":321,"state":"FL","utc":-5},
  {"area_code":323,"state":"CA","utc":-8},
  {"area_code":325,"state":"TX","utc":-6},
  {"area_code":330,"state":"OH","utc":-5},
  {"area_code":331,"state":"IL","utc":-6},
  {"area_code":332,"state":"NY","utc":-5},
  {"area_code":334,"state":"AL","utc":-6},
  {"area_code":336,"state":"NC","utc":-5},
  {"area_code":337,"state":"LA","utc":-6},
  {"area_code":339,"state":"MA","utc":-5},
  {"area_code":341,"state":"CA","utc":-8},
  {"area_code":346,"state":"TX","utc":-6},
  {"area_code":347,"state":"NY","utc":-5},
  {"area_code":351,"state":"MA","utc":-5},
  {"area_code":352,"state":"FL","utc":-5},
  {"area_code":360,"state":"WA","utc":-8},
  {"area_code":361,"state":"TX","utc":-6},
  {"area_code":369,"state":"CA","utc":-8},
  {"area_code":380,"state":"OH","utc":-5},
  {"area_code":385,"state":"UT","utc":-7},
  {"area_code":386,"state":"FL","utc":-5},
  {"area_code":401,"state":"RI","utc":-5},
  {"area_code":402,"state":"NE","utc":-6},
  {"area_code":404,"state":"GA","utc":-5},
  {"area_code":405,"state":"OK","utc":-6},
  {"area_code":406,"state":"MT","utc":-7},
  {"area_code":407,"state":"FL","utc":-5},
  {"area_code":408,"state":"CA","utc":-8},
  {"area_code":409,"state":"TX","utc":-6},
  {"area_code":410,"state":"MD","utc":-5},
  {"area_code":412,"state":"PA","utc":-5},
  {"area_code":413,"state":"MA","utc":-5},
  {"area_code":414,"state":"WI","utc":-6},
  {"area_code":415,"state":"CA","utc":-8},
  {"area_code":417,"state":"MO","utc":-6},
  {"area_code":419,"state":"OH","utc":-5},
  {"area_code":423,"state":"TN","utc":-5},
  {"area_code":424,"state":"CA","utc":-8},
  {"area_code":425,"state":"WA","utc":-8},
  {"area_code":430,"state":"TX","utc":-6},
  {"area_code":432,"state":"TX","utc":-7},
  {"area_code":434,"state":"VA","utc":-5},
  {"area_code":435,"state":"UT","utc":-7},
  {"area_code":440,"state":"OH","utc":-5},
  {"area_code":442,"state":"CA","utc":-8},
  {"area_code":443,"state":"MD","utc":-5},
  {"area_code":458,"state":"OR","utc":-8},
  {"area_code":464,"state":"IL","utc":-6},
  {"area_code":469,"state":"TX","utc":-6},
  {"area_code":470,"state":"GA","utc":-5},
  {"area_code":475,"state":"CT","utc":-5},
  {"area_code":478,"state":"GA","utc":-5},
  {"area_code":479,"state":"AR","utc":-6},
  {"area_code":480,"state":"AZ","utc":-7},
  {"area_code":484,"state":"PA","utc":-5},
  {"area_code":501,"state":"AR","utc":-6},
  {"area_code":502,"state":"KY","utc":-5},
  {"area_code":503,"state":"OR","utc":-8},
  {"area_code":504,"state":"LA","utc":-6},
  {"area_code":505,"state":"NM","utc":-7},
  {"area_code":507,"state":"MN","utc":-6},
  {"area_code":508,"state":"MA","utc":-5},
  {"area_code":509,"state":"WA","utc":-8},
  {"area_code":510,"state":"CA","utc":-8},
  {"area_code":512,"state":"TX","utc":-6},
  {"area_code":513,"state":"OH","utc":-5},
  {"area_code":515,"state":"IA","utc":-6},
  {"area_code":516,"state":"NY","utc":-5},
  {"area_code":517,"state":"MI","utc":-5},
  {"area_code":518,"state":"NY","utc":-5},
  {"area_code":520,"state":"AZ","utc":-7},
  {"area_code":530,"state":"CA","utc":-8},
  {"area_code":539,"state":"OK","utc":-6},
  {"area_code":540,"state":"VA","utc":-5},
  {"area_code":541,"state":"OR","utc":-8},
  {"area_code":551,"state":"NJ","utc":-5},
  {"area_code":557,"state":"MO","utc":-6},
  {"area_code":559,"state":"CA","utc":-8},
  {"area_code":561,"state":"FL","utc":-5},
  {"area_code":562,"state":"CA","utc":-8},
  {"area_code":563,"state":"IA","utc":-6},
  {"area_code":564,"state":"WA","utc":-8},
  {"area_code":567,"state":"OH","utc":-5},
  {"area_code":570,"state":"PA","utc":-5},
  {"area_code":571,"state":"VA","utc":-5},
  {"area_code":573,"state":"MO","utc":-6},
  {"area_code":574,"state":"IN","utc":-5},
  {"area_code":575,"state":"NM","utc":-7},
  {"area_code":580,"state":"OK","utc":-6},
  {"area_code":585,"state":"NY","utc":-5},
  {"area_code":586,"state":"MI","utc":-5},
  {"area_code":601,"state":"MS","utc":-6},
  {"area_code":602,"state":"AZ","utc":-7},
  {"area_code":603,"state":"NH","utc":-5},
  {"area_code":605,"state":"SD","utc":-6},
  {"area_code":606,"state":"KY","utc":-5},
  {"area_code":607,"state":"NY","utc":-5},
  {"area_code":608,"state":"WI","utc":-6},
  {"area_code":609,"state":"NJ","utc":-5},
  {"area_code":610,"state":"PA","utc":-5},
  {"area_code":612,"state":"MN","utc":-6},
  {"area_code":614,"state":"OH","utc":-5},
  {"area_code":615,"state":"TN","utc":-6},
  {"area_code":616,"state":"MI","utc":-5},
  {"area_code":617,"state":"MA","utc":-5},
  {"area_code":618,"state":"IL","utc":-6},
  {"area_code":619,"state":"CA","utc":-8},
  {"area_code":620,"state":"KS","utc":-6},
  {"area_code":623,"state":"AZ","utc":-7},
  {"area_code":626,"state":"CA","utc":-8},
  {"area_code":627,"state":"CA","utc":-8},
  {"area_code":628,"state":"CA","utc":-8},
  {"area_code":629,"state":"TN","utc":-6},
  {"area_code":630,"state":"IL","utc":-6},
  {"area_code":631,"state":"NY","utc":-5},
  {"area_code":636,"state":"MO","utc":-6},
  {"area_code":639,"state":"SK","utc":-6},
  {"area_code":641,"state":"IA","utc":-6},
  {"area_code":646,"state":"NY","utc":-5},
  {"area_code":650,"state":"CA","utc":-8},
  {"area_code":651,"state":"MN","utc":-6},
  {"area_code":657,"state":"CA","utc":-8},
  {"area_code":660,"state":"MO","utc":-6},
  {"area_code":661,"state":"CA","utc":-8},
  {"area_code":662,"state":"MS","utc":-6},
  {"area_code":667,"state":"MD","utc":-5},
  {"area_code":669,"state":"CA","utc":-8},
  {"area_code":678,"state":"GA","utc":-5},
  {"area_code":679,"state":"MI","utc":-5},
  {"area_code":681,"state":"WV","utc":-5},
  {"area_code":682,"state":"TX","utc":-6},
  {"area_code":689,"state":"FL","utc":-5},
  {"area_code":701,"state":"ND","utc":-6},
  {"area_code":702,"state":"NV","utc":-8},
  {"area_code":703,"state":"VA","utc":-5},
  {"area_code":704,"state":"NC","utc":-5},
  {"area_code":706,"state":"GA","utc":-5},
  {"area_code":707,"state":"CA","utc":-8},
  {"area_code":708,"state":"IL","utc":-6},
  {"area_code":709,"state":"NL","utc":-4},
  {"area_code":712,"state":"IA","utc":-6},
  {"area_code":713,"state":"TX","utc":-6},
  {"area_code":714,"state":"CA","utc":-8},
  {"area_code":715,"state":"WI","utc":-6},
  {"area_code":716,"state":"NY","utc":-5},
  {"area_code":717,"state":"PA","utc":-5},
  {"area_code":718,"state":"NY","utc":-5},
  {"area_code":719,"state":"CO","utc":-7},
  {"area_code":720,"state":"CO","utc":-7},
  {"area_code":724,"state":"PA","utc":-5},
  {"area_code":725,"state":"NV","utc":-8},
  {"area_code":727,"state":"FL","utc":-5},
  {"area_code":731,"state":"TN","utc":-6},
  {"area_code":732,"state":"NJ","utc":-5},
  {"area_code":734,"state":"MI","utc":-5},
  {"area_code":737,"state":"TX","utc":-6},
  {"area_code":740,"state":"OH","utc":-5},
  {"area_code":743,"state":"NC","utc":-5},
  {"area_code":747,"state":"CA","utc":-8},
  {"area_code":754,"state":"FL","utc":-5},
  {"area_code":757,"state":"VA","utc":-5},
  {"area_code":760,"state":"CA","utc":-8},
  {"area_code":762,"state":"GA","utc":-5},
  {"area_code":763,"state":"MN","utc":-6},
  {"area_code":764,"state":"CA","utc":-8},
  {"area_code":765,"state":"IN","utc":-5},
  {"area_code":769,"state":"MS","utc":-6},
  {"area_code":770,"state":"GA","utc":-5},
  {"area_code":772,"state":"FL","utc":-5},
  {"area_code":773,"state":"IL","utc":-6},
  {"area_code":774,"state":"MA","utc":-5},
  {"area_code":775,"state":"NV","utc":-8},
  {"area_code":779,"state":"IL","utc":-6},
  {"area_code":781,"state":"MA","utc":-5},
  {"area_code":782,"state":"NS","utc":-4},
  {"area_code":785,"state":"KS","utc":-6},
  {"area_code":786,"state":"FL","utc":-5},
  {"area_code":801,"state":"UT","utc":-7},
  {"area_code":802,"state":"VT","utc":-5},
  {"area_code":803,"state":"SC","utc":-5},
  {"area_code":804,"state":"VA","utc":-5},
  {"area_code":805,"state":"CA","utc":-8},
  {"area_code":806,"state":"TX","utc":-6},
  {"area_code":808,"state":"HI","utc":-10},
  {"area_code":810,"state":"MI","utc":-5},
  {"area_code":812,"state":"IN","utc":-5},
  {"area_code":813,"state":"FL","utc":-5},
  {"area_code":814,"state":"PA","utc":-5},
  {"area_code":815,"state":"IL","utc":-6},
  {"area_code":816,"state":"MO","utc":-6},
  {"area_code":817,"state":"TX","utc":-6},
  {"area_code":818,"state":"CA","utc":-8},
  {"area_code":828,"state":"NC","utc":-5},
  {"area_code":830,"state":"TX","utc":-6},
  {"area_code":831,"state":"CA","utc":-8},
  {"area_code":832,"state":"TX","utc":-6},
  {"area_code":835,"state":"PA","utc":-5},
  {"area_code":843,"state":"SC","utc":-5},
  {"area_code":845,"state":"NY","utc":-5},
  {"area_code":847,"state":"IL","utc":-6},
  {"area_code":848,"state":"NJ","utc":-5},
  {"area_code":850,"state":"FL","utc":-5},
  {"area_code":856,"state":"NJ","utc":-5},
  {"area_code":857,"state":"MA","utc":-5},
  {"area_code":858,"state":"CA","utc":-8},
  {"area_code":859,"state":"KY","utc":-5},
  {"area_code":860,"state":"CT","utc":-5},
  {"area_code":862,"state":"NJ","utc":-5},
  {"area_code":863,"state":"FL","utc":-5},
  {"area_code":864,"state":"SC","utc":-5},
  {"area_code":865,"state":"TN","utc":-5},
  {"area_code":870,"state":"AR","utc":-6},
  {"area_code":872,"state":"IL","utc":-6},
  {"area_code":878,"state":"PA","utc":-5},
  {"area_code":901,"state":"TN","utc":-6},
  {"area_code":902,"state":"NS","utc":-4},
  {"area_code":903,"state":"TX","utc":-6},
  {"area_code":904,"state":"FL","utc":-5},
  {"area_code":906,"state":"MI","utc":-5},
  {"area_code":907,"state":"AK","utc":-9},
  {"area_code":908,"state":"NJ","utc":-5},
  {"area_code":909,"state":"CA","utc":-8},
  {"area_code":910,"state":"NC","utc":-5},
  {"area_code":912,"state":"GA","utc":-5},
  {"area_code":913,"state":"KS","utc":-6},
  {"area_code":914,"state":"NY","utc":-5},
  {"area_code":915,"state":"TX","utc":-6},
  {"area_code":916,"state":"CA","utc":-8},
  {"area_code":917,"state":"NY","utc":-5},
  {"area_code":918,"state":"OK","utc":-6},
  {"area_code":919,"state":"NC","utc":-5},
  {"area_code":920,"state":"WI","utc":-6},
  {"area_code":925,"state":"CA","utc":-8},
  {"area_code":927,"state":"FL","utc":-5},
  {"area_code":928,"state":"AZ","utc":-7},
  {"area_code":929,"state":"NY","utc":-5},
  {"area_code":931,"state":"TN","utc":-6},
  {"area_code":935,"state":"CA","utc":-8},
  {"area_code":936,"state":"TX","utc":-6},
  {"area_code":937,"state":"OH","utc":-5},
  {"area_code":940,"state":"TX","utc":-6},
  {"area_code":941,"state":"FL","utc":-5},
  {"area_code":947,"state":"MI","utc":-5},
  {"area_code":949,"state":"CA","utc":-8},
  {"area_code":951,"state":"CA","utc":-8},
  {"area_code":952,"state":"MN","utc":-6},
  {"area_code":954,"state":"FL","utc":-5},
  {"area_code":956,"state":"TX","utc":-6},
  {"area_code":957,"state":"NM","utc":-7},
  {"area_code":959,"state":"CT","utc":-5},
  {"area_code":970,"state":"CO","utc":-7},
  {"area_code":971,"state":"OR","utc":-8},
  {"area_code":972,"state":"TX","utc":-6},
  {"area_code":973,"state":"NJ","utc":-5},
  {"area_code":975,"state":"MO","utc":-6},
  {"area_code":978,"state":"MA","utc":-5},
  {"area_code":979,"state":"TX","utc":-6},
  {"area_code":980,"state":"NC","utc":-5},
  {"area_code":984,"state":"NC","utc":-5},
  {"area_code":985,"state":"LA","utc":-6},
  {"area_code":989,"state":"MI","utc":-5}
]